start=new Date('2021-12-04T00:00:00.000Z').valueOf();
sats=[{"REF_FRAME":"TEME","MEAN_MOTION_DDOT":"0.0000000000000","OBJECT_TYPE":"PAYLOAD","INCLINATION":"53.0552","SEMIMAJOR_AXIS":"6925.344","GP_ID":"191010616","TLE_LINE2":"2 48003  53.0552 128.7916 0002076  83.1648 276.9577 15.06401448 39734","COUNTRY_CODE":"US","OBJECT_NAME":"STARLINK-2263","EPHEMERIS_TYPE":"0","PERIOD":"95.592","TIME_SYSTEM":"UTC","MEAN_ELEMENT_THEORY":"SGP4","MEAN_MOTION":"15.06401448","ECCENTRICITY":"0.00020760","BSTAR":"0.00012738000000","FILE":"3231740","RCS_SIZE":"LARGE","LAUNCH_DATE":"2021-03-24","MEAN_MOTION_DOT":"0.00001616","PERIAPSIS":"545.771","CLASSIFICATION_TYPE":"U","APOAPSIS":"548.647","TLE_LINE1":"1 48003U 21024AC  21337.12375298  .00001616  00000-0  12738-3 0  9995","DECAY_DATE":null,"REV_AT_EPOCH":"3973","ARG_OF_PERICENTER":"83.1648","RA_OF_ASC_NODE":"128.7916","EPOCH":"2021-12-03T02:58:12.257472","SITE":"AFETR","NORAD_CAT_ID":"48003","MEAN_ANOMALY":"276.9577","OBJECT_ID":"2021-024AC","CENTER_NAME":"EARTH","ELEMENT_SET_NO":"999"},{"ARG_OF_PERICENTER":"32.5115","EPOCH":"2021-12-03T22:00:00.999936","RA_OF_ASC_NODE":"18.4389","TLE_LINE1":"1 48004U 21024AD  21337.91667824  .00782035  00000-0  25143-2 0  9996","DECAY_DATE":null,"REV_AT_EPOCH":"369","CENTER_NAME":"EARTH","ELEMENT_SET_NO":"999","SITE":"AFETR","MEAN_ANOMALY":"160.6762","NORAD_CAT_ID":"48004","OBJECT_ID":"2021-024AD","ECCENTRICITY":"0.00016680","MEAN_MOTION":"15.88518327","RCS_SIZE":"LARGE","LAUNCH_DATE":"2021-03-24","MEAN_MOTION_DOT":"0.00782035","PERIAPSIS":"305.323","CLASSIFICATION_TYPE":"U","APOAPSIS":"307.553","FILE":"3231910","BSTAR":"0.00251430000000","COUNTRY_CODE":"US","OBJECT_NAME":"STARLINK-2261","EPHEMERIS_TYPE":"0","GP_ID":"191038821","TLE_LINE2":"2 48004  53.0546  18.4389 0001668  32.5115 160.6762 15.88518327  3696","MEAN_ELEMENT_THEORY":"SGP4","TIME_SYSTEM":"UTC","PERIOD":"90.651","REF_FRAME":"TEME","MEAN_MOTION_DDOT":"0.0000000000000","SEMIMAJOR_AXIS":"6684.573","OBJECT_TYPE":"PAYLOAD","INCLINATION":"53.0546"},{"OBJECT_ID":"2021-024AE","SITE":"AFETR","MEAN_ANOMALY":"236.0968","NORAD_CAT_ID":"48005","ELEMENT_SET_NO":"999","CENTER_NAME":"EARTH","DECAY_DATE":null,"REV_AT_EPOCH":"4021","TLE_LINE1":"1 48005U 21024AE  21337.49879686  .00000309  00000-0  39657-4 0  9995","ARG_OF_PERICENTER":"124.0210","RA_OF_ASC_NODE":"97.1277","EPOCH":"2021-12-03T11:58:16.048704","BSTAR":"0.00003965700000","FILE":"3231740","APOAPSIS":"548.597","CLASSIFICATION_TYPE":"U","RCS_SIZE":"LARGE","PERIAPSIS":"545.849","LAUNCH_DATE":"2021-03-24","MEAN_MOTION_DOT":"0.00000309","MEAN_MOTION":"15.06397058","ECCENTRICITY":"0.00019840","PERIOD":"95.592","TIME_SYSTEM":"UTC","MEAN_ELEMENT_THEORY":"SGP4","TLE_LINE2":"2 48005  53.0589  97.1277 0001984 124.0210 236.0968 15.06397058 40219","GP_ID":"191012117","OBJECT_NAME":"STARLINK-2254","EPHEMERIS_TYPE":"0","COUNTRY_CODE":"US","INCLINATION":"53.0589","OBJECT_TYPE":"PAYLOAD","SEMIMAJOR_AXIS":"6925.358","MEAN_MOTION_DDOT":"0.0000000000000","REF_FRAME":"TEME"},{"SEMIMAJOR_AXIS":"6684.340","INCLINATION":"53.0546","OBJECT_TYPE":"PAYLOAD","MEAN_MOTION_DDOT":"0.0000000000000","REF_FRAME":"TEME","MEAN_ELEMENT_THEORY":"SGP4","PERIOD":"90.646","TIME_SYSTEM":"UTC","OBJECT_NAME":"STARLINK-2259","EPHEMERIS_TYPE":"0","COUNTRY_CODE":"US","TLE_LINE2":"2 48007  53.0546  18.4326 0001578  35.6430 160.7511 15.88601475  3694","GP_ID":"191038319","APOAPSIS":"307.260","CLASSIFICATION_TYPE":"U","RCS_SIZE":"LARGE","MEAN_MOTION_DOT":"0.00786326","LAUNCH_DATE":"2021-03-24","PERIAPSIS":"305.150","FILE":"3231910","BSTAR":"0.00251640000000","ECCENTRICITY":"0.00015780","MEAN_MOTION":"15.88601475","ELEMENT_SET_NO":"999","CENTER_NAME":"EARTH","OBJECT_ID":"2021-024AG","SITE":"AFETR","MEAN_ANOMALY":"160.7511","NORAD_CAT_ID":"48007","ARG_OF_PERICENTER":"35.6430","RA_OF_ASC_NODE":"18.4326","EPOCH":"2021-12-03T22:00:00.999936","DECAY_DATE":null,"REV_AT_EPOCH":"369","TLE_LINE1":"1 48007U 21024AG  21337.91667824  .00786326  00000-0  25164-2 0  9999"},{"DECAY_DATE":null,"REV_AT_EPOCH":"362","TLE_LINE1":"1 48008U 21024AH  21337.91667824 -.00001937  00000-0 -11120-3 0  9998","ARG_OF_PERICENTER":"53.5637","EPOCH":"2021-12-03T22:00:00.999936","RA_OF_ASC_NODE":"30.2309","OBJECT_ID":"2021-024AH","SITE":"AFETR","MEAN_ANOMALY":"296.4303","NORAD_CAT_ID":"48008","ELEMENT_SET_NO":"999","CENTER_NAME":"EARTH","MEAN_MOTION":"15.06394767","ECCENTRICITY":"0.00015820","FILE":"3231910","BSTAR":"-0.00011120000000","APOAPSIS":"548.325","CLASSIFICATION_TYPE":"U","RCS_SIZE":"LARGE","MEAN_MOTION_DOT":"-0.00001937","LAUNCH_DATE":"2021-03-24","PERIAPSIS":"546.134","TLE_LINE2":"2 48008  53.0425  30.2309 0001582  53.5637 296.4303 15.06394767  3629","GP_ID":"191038070","OBJECT_NAME":"STARLINK-2271","EPHEMERIS_TYPE":"0","COUNTRY_CODE":"US","PERIOD":"95.592","TIME_SYSTEM":"UTC","MEAN_ELEMENT_THEORY":"SGP4","MEAN_MOTION_DDOT":"0.0000000000000","REF_FRAME":"TEME","OBJECT_TYPE":"PAYLOAD","INCLINATION":"53.0425","SEMIMAJOR_AXIS":"6925.365"},{"REV_AT_EPOCH":"4012","DECAY_DATE":null,"TLE_LINE1":"1 48009U 21024AJ  21337.78075432 -.00000047  00000-0  15779-4 0  9997","RA_OF_ASC_NODE":"105.8396","EPOCH":"2021-12-03T18:44:17.173248","ARG_OF_PERICENTER":"88.6931","OBJECT_ID":"2021-024AJ","MEAN_ANOMALY":"271.4230","NORAD_CAT_ID":"48009","SITE":"AFETR","ELEMENT_SET_NO":"999","CENTER_NAME":"EARTH","MEAN_MOTION":"15.06389738","ECCENTRICITY":"0.00015000","FILE":"3231910","BSTAR":"0.00001577900000","CLASSIFICATION_TYPE":"U","APOAPSIS":"548.284","LAUNCH_DATE":"2021-03-24","MEAN_MOTION_DOT":"-0.00000047","PERIAPSIS":"546.206","RCS_SIZE":"LARGE","TLE_LINE2":"2 48009  53.0548 105.8396 0001500  88.6931 271.4230 15.06389738 40127","GP_ID":"191039321","EPHEMERIS_TYPE":"0","OBJECT_NAME":"STARLINK-2153","COUNTRY_CODE":"US","TIME_SYSTEM":"UTC","PERIOD":"95.593","MEAN_ELEMENT_THEORY":"SGP4","MEAN_MOTION_DDOT":"0.0000000000000","REF_FRAME":"TEME","INCLINATION":"53.0548","OBJECT_TYPE":"PAYLOAD","SEMIMAJOR_AXIS":"6925.380"},{"TLE_LINE2":"2 48010  53.0530 128.7946 0002134  92.0318 268.0916 15.06398553 39741","GP_ID":"191011618","OBJECT_NAME":"STARLINK-2226","EPHEMERIS_TYPE":"0","COUNTRY_CODE":"US","PERIOD":"95.592","TIME_SYSTEM":"UTC","MEAN_ELEMENT_THEORY":"SGP4","MEAN_MOTION_DDOT":"0.0000000000000","REF_FRAME":"TEME","INCLINATION":"53.0530","OBJECT_TYPE":"PAYLOAD","SEMIMAJOR_AXIS":"6925.353","DECAY_DATE":null,"REV_AT_EPOCH":"3974","TLE_LINE1":"1 48010U 21024AK  21337.12744618 -.00000597  00000-0 -21194-4 0  9995","ARG_OF_PERICENTER":"92.0318","RA_OF_ASC_NODE":"128.7946","EPOCH":"2021-12-03T03:03:31.349952","OBJECT_ID":"2021-024AK","SITE":"AFETR","MEAN_ANOMALY":"268.0916","NORAD_CAT_ID":"48010","ELEMENT_SET_NO":"999","CENTER_NAME":"EARTH","MEAN_MOTION":"15.06398553","ECCENTRICITY":"0.00021340","BSTAR":"-0.00002119400000","FILE":"3231740","APOAPSIS":"548.696","CLASSIFICATION_TYPE":"U","RCS_SIZE":"LARGE","LAUNCH_DATE":"2021-03-24","PERIAPSIS":"545.740","MEAN_MOTION_DOT":"-0.00000597"},{"MEAN_ELEMENT_THEORY":"SGP4","PERIOD":"95.592","TIME_SYSTEM":"UTC","OBJECT_NAME":"STARLINK-2272","EPHEMERIS_TYPE":"0","COUNTRY_CODE":"US","TLE_LINE2":"2 48011  53.0567 107.7746 0001444  94.6818 265.4336 15.06399002 40113","GP_ID":"191012368","SEMIMAJOR_AXIS":"6925.352","INCLINATION":"53.0567","OBJECT_TYPE":"PAYLOAD","MEAN_MOTION_DDOT":"0.0000000000000","REF_FRAME":"TEME","ELEMENT_SET_NO":"999","CENTER_NAME":"EARTH","OBJECT_ID":"2021-024AL","SITE":"AFETR","NORAD_CAT_ID":"48011","MEAN_ANOMALY":"265.4336","ARG_OF_PERICENTER":"94.6818","RA_OF_ASC_NODE":"107.7746","EPOCH":"2021-12-03T08:23:16.552896","DECAY_DATE":null,"REV_AT_EPOCH":"4011","TLE_LINE1":"1 48011U 21024AL  21337.34949714 -.00000129  00000-0  10213-4 0  9994","CLASSIFICATION_TYPE":"U","APOAPSIS":"548.217","RCS_SIZE":"LARGE","MEAN_MOTION_DOT":"-0.00000129","LAUNCH_DATE":"2021-03-24","PERIAPSIS":"546.217","BSTAR":"0.00001021300000","FILE":"3231740","ECCENTRICITY":"0.00014440","MEAN_MOTION":"15.06399002"},{"REF_FRAME":"TEME","MEAN_MOTION_DDOT":"0.0000000000000","SEMIMAJOR_AXIS":"6925.392","OBJECT_TYPE":"PAYLOAD","INCLINATION":"53.0567","COUNTRY_CODE":"US","OBJECT_NAME":"STARLINK-2216","EPHEMERIS_TYPE":"0","GP_ID":"191010617","TLE_LINE2":"2 48012  53.0567  81.8623 0001299  79.2271 280.8865 15.06385913 40495","MEAN_ELEMENT_THEORY":"SGP4","PERIOD":"95.593","TIME_SYSTEM":"UTC","ECCENTRICITY":"0.00012990","MEAN_MOTION":"15.06385913","RCS_SIZE":"LARGE","PERIAPSIS":"546.357","LAUNCH_DATE":"2021-03-24","MEAN_MOTION_DOT":"0.00000468","APOAPSIS":"548.156","CLASSIFICATION_TYPE":"U","BSTAR":"0.00005033700000","FILE":"3231740","ARG_OF_PERICENTER":"79.2271","RA_OF_ASC_NODE":"81.8623","EPOCH":"2021-12-03T13:17:13.906752","TLE_LINE1":"1 48012U 21024AM  21337.55363318  .00000468  00000-0  50337-4 0  9994","DECAY_DATE":null,"REV_AT_EPOCH":"4049","CENTER_NAME":"EARTH","ELEMENT_SET_NO":"999","SITE":"AFETR","NORAD_CAT_ID":"48012","MEAN_ANOMALY":"280.8865","OBJECT_ID":"2021-024AM"},{"INCLINATION":"53.0547","OBJECT_TYPE":"PAYLOAD","SEMIMAJOR_AXIS":"6925.363","MEAN_MOTION_DDOT":"0.0000000000000","REF_FRAME":"TEME","TIME_SYSTEM":"UTC","PERIOD":"95.592","MEAN_ELEMENT_THEORY":"SGP4","TLE_LINE2":"2 48013  53.0547  92.0966 0001420  79.8979 280.2170 15.06395256 40297","GP_ID":"191010867","EPHEMERIS_TYPE":"0","OBJECT_NAME":"STARLINK-2243","COUNTRY_CODE":"US","BSTAR":"0.00004103500000","FILE":"3231740","APOAPSIS":"548.211","CLASSIFICATION_TYPE":"U","LAUNCH_DATE":"2021-03-24","PERIAPSIS":"546.245","MEAN_MOTION_DOT":"0.00000330","RCS_SIZE":"LARGE","MEAN_MOTION":"15.06395256","ECCENTRICITY":"0.00014200","OBJECT_ID":"2021-024AN","NORAD_CAT_ID":"48013","MEAN_ANOMALY":"280.2170","SITE":"AFETR","ELEMENT_SET_NO":"999","CENTER_NAME":"EARTH","REV_AT_EPOCH":"4029","DECAY_DATE":null,"TLE_LINE1":"1 48013U 21024AN  21337.50478838  .00000330  00000-0  41035-4 0  9997","RA_OF_ASC_NODE":"92.0966","EPOCH":"2021-12-03T12:06:53.716032","ARG_OF_PERICENTER":"79.8979"}];
